[{"OBJECT_NAME":"STARLINK-3587","OBJECT_ID":"2022-022AS","EPOCH":"2026-03-09T22:48:17.867520","MEAN_MOTION":15.08840626,"ECCENTRICITY":0.00014025,"INCLINATION":53.2202,"RA_OF_ASC_NODE":357.9501,"ARG_OF_PERICENTER":108.976,"MEAN_ANOMALY":251.1384,"EPHEMERIS_TYPE":0,"CLASSIFICATION_TYPE":"U","NORAD_CAT_ID":51892,"ELEMENT_SET_NO":999,"REV_AT_EPOCH":22328,"BSTAR":-3.0248478e-5,"MEAN_MOTION_DOT":-7.69e-6,"MEAN_MOTION_DDOT":0},{"OBJECT_NAME":"NAXING 1","OBJECT_ID":"2004-012B","EPOCH":"2026-03-09T22:31:20.183520","MEAN_MOTION":15.05443462,"ECCENTRICITY":0.00121665,"INCLINATION":98.0152,"RA_OF_ASC_NODE":92.9199,"ARG_OF_PERICENTER":69.4128,"MEAN_ANOMALY":290.8402,"EPHEMERIS_TYPE":0,"CLASSIFICATION_TYPE":"U","NORAD_CAT_ID":28221,"ELEMENT_SET_NO":999,"REV_AT_EPOCH":19231,"BSTAR":0.00025838798,"MEAN_MOTION_DOT":3.649e-5,"MEAN_MOTION_DDOT":0}]
